{
  "type": "FeatureCollection",
  "features": [
    {
      "type": "Feature",
      "properties": {
        "norad_id": 66575,
        "name": "STARLINK-35810",
        "group": "last-30-days",
        "lat": -40.214599954463,
        "lon": 34.6964010677936,
        "alt_km": 416.64791167569456,
        "timestamp": "2025-12-16T08:59:41.906884+00:00",
        "meta_object_name": "STARLINK-35810",
        "meta_object_id": "2025-268U",
        "meta_epoch": "2025-12-15T16:17:47.089536",
        "meta_mean_motion": 15.50593281,
        "meta_eccentricity": 0.00020416,
        "meta_inclination": 42.9965,
        "meta_ra_of_asc_node": 103.9231,
        "meta_arg_of_pericenter": 303.8123,
        "meta_mean_anomaly": 56.2543,
        "meta_ephemeris_type": 0,
        "meta_classification_type": "U",
        "meta_norad_cat_id": 66575,
        "meta_element_set_no": 999,
        "meta_rev_at_epoch": 508,
        "meta_bstar": 0.0012440856,
        "meta_mean_motion_dot": 0.00073369,
        "meta_mean_motion_ddot": 0,
        "tle_line1": "1 66575U 25268U   25349.67901724  .00073369  00000+0  12441-2 0  9992",
        "tle_line2": "2 66575  42.9965 103.9231 0002041 303.8123  56.2543 15.50593281  5089"
      },
      "geometry": {
        "type": "Point",
        "coordinates": [
          34.6964010677936,
          -40.214599954463
        ]
      }
    },
    {
      "type": "Feature",
      "properties": {
        "norad_id": 66576,
        "name": "STARLINK-35814",
        "group": "last-30-days",
        "lat": -39.63451319798297,
        "lon": 37.12112002839257,
        "alt_km": 416.3682562077338,
        "timestamp": "2025-12-16T08:59:41.906894+00:00",
        "meta_object_name": "STARLINK-35814",
        "meta_object_id": "2025-268V",
        "meta_epoch": "2025-12-15T16:17:17.017152",
        "meta_mean_motion": 15.50597287,
        "meta_eccentricity": 0.00023303,
        "meta_inclination": 43.0016,
        "meta_ra_of_asc_node": 103.9189,
        "meta_arg_of_pericenter": 276.2933,
        "meta_mean_anomaly": 83.7661,
        "meta_ephemeris_type": 0,
        "meta_classification_type": "U",
        "meta_norad_cat_id": 66576,
        "meta_element_set_no": 999,
        "meta_rev_at_epoch": 508,
        "meta_bstar": 0.0012030236,
        "meta_mean_motion_dot": 0.00070925,
        "meta_mean_motion_ddot": 0,
        "tle_line1": "1 66576U 25268V   25349.67866918  .00070925  00000+0  12030-2 0  9997",
        "tle_line2": "2 66576  43.0016 103.9189 0002330 276.2933  83.7661 15.50597287  5080"
      },
      "geometry": {
        "type": "Point",
        "coordinates": [
          37.12112002839257,
          -39.63451319798297
        ]
      }
    },
    {
      "type": "Feature",
      "properties": {
        "norad_id": 66577,
        "name": "STARLINK-35815",
        "group": "last-30-days",
        "lat": -39.01660659301796,
        "lon": 39.42879532252236,
        "alt_km": 416.67375730169806,
        "timestamp": "2025-12-16T08:59:41.906904+00:00",
        "meta_object_name": "STARLINK-35815",
        "meta_object_id": "2025-268W",
        "meta_epoch": "2025-12-15T16:16:47.789760",
        "meta_mean_motion": 15.50596614,
        "meta_eccentricity": 0.00019566,
        "meta_inclination": 42.9973,
        "meta_ra_of_asc_node": 103.917,
        "meta_arg_of_pericenter": 312.8942,
        "meta_mean_anomaly": 47.1754,
        "meta_ephemeris_type": 0,
        "meta_classification_type": "U",
        "meta_norad_cat_id": 66577,
        "meta_element_set_no": 999,
        "meta_rev_at_epoch": 508,
        "meta_bstar": 0.0012838684,
        "meta_mean_motion_dot": 0.00075758,
        "meta_mean_motion_ddot": 0,
        "tle_line1": "1 66577U 25268W   25349.67833090  .00075758  00000+0  12839-2 0  9999",
        "tle_line2": "2 66577  42.9973 103.9170 0001956 312.8942  47.1754 15.50596614  5081"
      },
      "geometry": {
        "type": "Point",
        "coordinates": [
          39.42879532252236,
          -39.01660659301796
        ]
      }
    },
    {
      "type": "Feature",
      "properties": {
        "norad_id": 66578,
        "name": "STARLINK-35743",
        "group": "last-30-days",
        "lat": -38.40801251087017,
        "lon": 41.53636522157571,
        "alt_km": 416.6545499941976,
        "timestamp": "2025-12-16T08:59:41.906915+00:00",
        "meta_object_name": "STARLINK-35743",
        "meta_object_id": "2025-268X",
        "meta_epoch": "2025-12-15T16:16:19.050528",
        "meta_mean_motion": 15.50569208,
        "meta_eccentricity": 0.00022003,
        "meta_inclination": 42.9999,
        "meta_ra_of_asc_node": 103.9125,
        "meta_arg_of_pericenter": 266.0118,
        "meta_mean_anomaly": 94.049,
        "meta_ephemeris_type": 0,
        "meta_classification_type": "U",
        "meta_norad_cat_id": 66578,
        "meta_element_set_no": 999,
        "meta_rev_at_epoch": 508,
        "meta_bstar": 0.0008996047,
        "meta_mean_motion_dot": 0.00052774,
        "meta_mean_motion_ddot": 0,
        "tle_line1": "1 66578U 25268X   25349.67799827  .00052774  00000+0  89960-3 0  9992",
        "tle_line2": "2 66578  42.9999 103.9125 0002200 266.0118  94.0490 15.50569208  5085"
      },
      "geometry": {
        "type": "Point",
        "coordinates": [
          41.53636522157571,
          -38.40801251087017
        ]
      }
    },
    {
      "type": "Feature",
      "properties": {
        "norad_id": 66579,
        "name": "STARLINK-35868",
        "group": "last-30-days",
        "lat": -37.62675431216388,
        "lon": 44.02092102274631,
        "alt_km": 416.04128009716896,
        "timestamp": "2025-12-16T08:59:41.906924+00:00",
        "meta_object_name": "STARLINK-35868",
        "meta_object_id": "2025-268Y",
        "meta_epoch": "2025-12-15T16:15:47.994048",
        "meta_mean_motion": 15.506111,
        "meta_eccentricity": 0.00027861,
        "meta_inclination": 43.0018,
        "meta_ra_of_asc_node": 103.9094,
        "meta_arg_of_pericenter": 274.4238,
        "meta_mean_anomaly": 85.6304,
        "meta_ephemeris_type": 0,
        "meta_classification_type": "U",
        "meta_norad_cat_id": 66579,
        "meta_element_set_no": 999,
        "meta_rev_at_epoch": 508,
        "meta_bstar": 0.00097196041,
        "meta_mean_motion_dot": 0.00057166,
        "meta_mean_motion_ddot": 0,
        "tle_line1": "1 66579U 25268Y   25349.67763882  .00057166  00000+0  97196-3 0  9995",
        "tle_line2": "2 66579  43.0018 103.9094 0002786 274.4238  85.6304 15.50611100  5089"
      },
      "geometry": {
        "type": "Point",
        "coordinates": [
          44.02092102274631,
          -37.62675431216388
        ]
      }
    },
    {
      "type": "Feature",
      "properties": {
        "norad_id": 66580,
        "name": "STARLINK-35872",
        "group": "last-30-days",
        "lat": -36.77248345152281,
        "lon": 46.50924341192308,
        "alt_km": 415.4457035496089,
        "timestamp": "2025-12-16T08:59:41.906935+00:00",
        "meta_object_name": "STARLINK-35872",
        "meta_object_id": "2025-268Z",
        "meta_epoch": "2025-12-15T16:15:17.063712",
        "meta_mean_motion": 15.50657233,
        "meta_eccentricity": 0.00031097,
        "meta_inclination": 43.0018,
        "meta_ra_of_asc_node": 103.908,
        "meta_arg_of_pericenter": 288.2619,
        "meta_mean_anomaly": 71.7903,
        "meta_ephemeris_type": 0,
        "meta_classification_type": "U",
        "meta_norad_cat_id": 66580,
        "meta_element_set_no": 999,
        "meta_rev_at_epoch": 508,
        "meta_bstar": 0.0015013042,
        "meta_mean_motion_dot": 0.00088997,
        "meta_mean_motion_ddot": 0,
        "tle_line1": "1 66580U 25268Z   25349.67728083  .00088997  00000+0  15013-2 0  9994",
        "tle_line2": "2 66580  43.0018 103.9080 0003109 288.2619  71.7903 15.50657233  5080"
      },
      "geometry": {
        "type": "Point",
        "coordinates": [
          46.50924341192308,
          -36.77248345152281
        ]
      }
    },
    {
      "type": "Feature",
      "properties": {
        "norad_id": 66581,
        "name": "STARLINK-35744",
        "group": "last-30-days",
        "lat": -36.05917487479444,
        "lon": 48.436093974374415,
        "alt_km": 416.42229367495474,
        "timestamp": "2025-12-16T08:59:41.906947+00:00",
        "meta_object_name": "STARLINK-35744",
        "meta_object_id": "2025-268AA",
        "meta_epoch": "2025-12-15T16:14:48.883488",
        "meta_mean_motion": 15.50610189,
        "meta_eccentricity": 0.00021395,
        "meta_inclination": 43.0006,
        "meta_ra_of_asc_node": 103.9044,
        "meta_arg_of_pericenter": 264.612,
        "meta_mean_anomaly": 95.4496,
        "meta_ephemeris_type": 0,
        "meta_classification_type": "U",
        "meta_norad_cat_id": 66581,
        "meta_element_set_no": 999,
        "meta_rev_at_epoch": 508,
        "meta_bstar": 0.0014048251,
        "meta_mean_motion_dot": 0.00083047,
        "meta_mean_motion_ddot": 0,
        "tle_line1": "1 66581U 25268AA  25349.67695467  .00083047  00000+0  14048-2 0  9992",
        "tle_line2": "2 66581  43.0006 103.9044 0002139 264.6120  95.4496 15.50610189  5084"
      },
      "geometry": {
        "type": "Point",
        "coordinates": [
          48.436093974374415,
          -36.05917487479444
        ]
      }
    }
  ]
}